IRIDIUM 126             
1 42809U 17039G   24153.46271863  .00000273  00000+0  90507-4 0  9991
2 42809  86.3946 305.2771 0002086  88.2890 271.8544 14.34218155363060
IRIDIUM 124             
1 42810U 17039H   24154.23127315  .00000547  00000+0  15653-3 0  9993
2 42810  86.4510 241.6729 0002294 104.5318 255.6137 14.43272081367660
IRIDIUM 128             
1 42811U 17039J   24153.87205725  .00000137  00000+0  41782-4 0  9993
2 42811  86.3960 336.6357 0001974  94.2536 265.8886 14.34215960363159
IRIDIUM 121             
1 42812U 17039K   24153.97012615  .00000103  00000+0  29700-4 0  9998
2 42812  86.3945 305.0872 0002140  92.6293 267.5148 14.34218327363131
IRIDIUM 133             
1 42955U 17061A   24154.04331205  .00000133  00000+0  40606-4 0  9990
2 42955  86.3962 336.6635 0002072  87.0119 273.1314 14.34215808347977
IRIDIUM 100             
1 42956U 17061B   24153.89742513  .00000112  00000+0  32793-4 0  9996
2 42956  86.3960 336.6603 0002051  85.9100 274.2330 14.34217284347975
IRIDIUM 122             
1 42957U 17061C   24153.86571007  .00000131  00000+0  39733-4 0  9994
2 42957  86.3961 336.6721 0002053  88.7101 271.4330 14.34216099347952
IRIDIUM 129             
1 42958U 17061D   24153.61201381  .00000127  00000+0  38329-4 0  9998
2 42958  86.3962 336.8373 0001959  86.8797 273.2623 14.34216051347934
